{
 "type": "FeatureCollection",
 "name": "Nandurbar Municipal Council prabhag boundaries (2025 final map, traced)",
 "crs": {
  "type": "name",
  "properties": {
   "name": "urn:ogc:def:crs:OGC:1.3:CRS84"
  }
 },
 "metadata": {
  "datasetVersion": "seewik-map-trace-v0.2",
  "prabhagCount": 20,
  "sourceDocumentOfficial": true,
  "geometryOfficialDigital": false,
  "councilAreaKm2Official": 32.41,
  "councilAreaKm2Digitised": 32.33,
  "coordinateOrder": "longitude, latitude",
  "accuracyNote": "Scale is pinned to the official 32.41 km2 council area; rotation to the railway centreline; position to Nandurbar station. Expect roughly +/-100 m in the built-up core and worse in the peripheral lobes.",
  "fitnessForUse": "ward lookup and review; not legal boundary determination or survey use",
  "requiresCitizenConfirmation": true
 },
 "features": [
  {
   "type": "Feature",
   "id": "PRABHAG-01",
   "properties": {
    "prabhagId": "PRABHAG-01",
    "wardNumber": 1,
    "prabhagName": "Prabhag 1",
    "councillors": 2,
    "totalPopulation": 5262,
    "sc": 622,
    "st": 1620,
    "areaKm2": 5.304,
    "personsPerKm2": 992,
    "sharpSourceCoverage": 0.502,
    "boundaryEvidence": "mixed",
    "sourceReference": "Nandurbar Municipal Council General Election 2025 FINAL MAP (wall copy, Nagar Parishad); DocScanner scan + wide board photograph",
    "digitisationMethod": "colour segmentation of printed boundary ink + cost-distance allocation from printed ward-number labels",
    "georeferencingMethod": "similarity fit: rotation from railway centreline vs OSM, scale from official 32.41 km2 council area, position from Nandurbar railway station",
    "resolutionQuality": "APPROXIMATE_DIGITISED_OFFICIAL_MAP_IMAGE",
    "requiresCitizenConfirmation": true,
    "isActive": false,
    "datasetVersion": "seewik-map-trace-v0.2"
   },
   "geometry": {
    "type": "Polygon",
    "coordinates": [
     [
      [
       74.211584,
       21.414815
      ],
      [
       74.211643,
       21.414247
      ],
      [
       74.213577,
       21.412353
      ],
      [
       74.214137,
       21.4117
      ],
      [
       74.214471,
       21.411077
      ],
      [
       74.21486,
       21.410618
      ],
      [
       74.215088,
       21.410636
      ],
      [
       74.21683,
       21.409905
      ],
      [
       74.217936,
       21.408978
      ],
      [
       74.218273,
       21.408449
      ],
      [
       74.218389,
       21.408116
      ],
      [
       74.218728,
       21.407658
      ],
      [
       74.219076,
       21.40668
      ],
      [
       74.219271,
       21.406439
      ],
      [
       74.219265,
       21.40625
      ],
      [
       74.219619,
       21.405461
      ],
      [
       74.219614,
       21.405272
      ],
      [
       74.220016,
       21.404387
      ],
      [
       74.221099,
       21.404382
      ],
      [
       74.221722,
       21.403303
      ],
      [
       74.221918,
       21.403109
      ],
      [
       74.223102,
       21.403101
      ],
      [
       74.223785,
       21.402351
      ],
      [
       74.225095,
       21.400663
      ],
      [
       74.225548,
       21.400651
      ],
      [
       74.225538,
       21.401147
      ],
      [
       74.225642,
       21.401262
      ],
      [
       74.226448,
       21.401265
      ],
      [
       74.226571,
       21.401143
      ],
      [
       74.226591,
       21.400151
      ],
      [
       74.226539,
       21.400081
      ],
      [
       74.225733,
       21.400102
      ],
      [
       74.225767,
       21.399558
      ],
      [
       74.226006,
       21.399127
      ],
      [
       74.226117,
       21.398628
      ],
      [
       74.226426,
       21.397982
      ],
      [
       74.226609,
       21.397363
      ],
      [
       74.227275,
       21.396069
      ],
      [
       74.227564,
       21.394762
      ],
      [
       74.227638,
       21.394713
      ],
      [
       74.227662,
       21.393838
      ],
      [
       74.227384,
       21.393799
      ],
      [
       74.227331,
       21.393729
      ],
      [
       74.224634,
       21.393706
      ],
      [
       74.224582,
       21.393636
      ],
      [
       74.223978,
       21.393652
      ],
      [
       74.223217,
       21.393507
      ],
      [
       74.22236,
       21.393482
      ],
      [
       74.222307,
       21.393413
      ],
      [
       74.221651,
       21.393383
      ],
      [
       74.221599,
       21.393313
      ],
      [
       74.221067,
       21.393233
      ],
      [
       74.221015,
       21.393163
      ],
      [
       74.220585,
       21.393127
      ],
      [
       74.22038,
       21.393014
      ],
      [
       74.219747,
       21.392913
      ],
      [
       74.219727,
       21.392228
      ],
      [
       74.219849,
       21.391257
      ],
      [
       74.219745,
       21.391165
      ],
      [
       74.224772,
       21.389048
      ],
      [
       74.225527,
       21.389028
      ],
      [
       74.226672,
       21.388549
      ],
      [
       74.226915,
       21.388236
      ],
      [
       74.227313,
       21.387233
      ],
      [
       74.227305,
       21.386973
      ],
      [
       74.228034,
       21.385229
      ],
      [
       74.228013,
       21.384521
      ],
      [
       74.227857,
       21.384384
      ],
      [
       74.227852,
       21.384195
      ],
      [
       74.228388,
       21.38359
      ],
      [
       74.228637,
       21.383489
      ],
      [
       74.228756,
       21.38325
      ],
      [
       74.229382,
       21.383139
      ],
      [
       74.229589,
       21.383299
      ],
      [
       74.230097,
       21.38345
      ],
      [
       74.231162,
       21.383659
      ],
      [
       74.231449,
       21.383982
      ],
      [
       74.231677,
       21.384023
      ],
      [
       74.233513,
       21.383927
      ],
      [
       74.234089,
       21.383794
      ],
      [
       74.234685,
       21.383495
      ],
      [
       74.235239,
       21.383504
      ],
      [
       74.235611,
       21.383282
      ],
      [
       74.236744,
       21.383252
      ],
      [
       74.237251,
       21.383356
      ],
      [
       74.237473,
       21.383209
      ],
      [
       74.237514,
       21.382877
      ],
      [
       74.23807,
       21.382957
      ],
      [
       74.238506,
       21.383182
      ],
      [
       74.238885,
       21.383219
      ],
      [
       74.239311,
       21.383137
      ],
      [
       74.239472,
       21.383463
      ],
      [
       74.239481,
       21.383794
      ],
      [
       74.239349,
       21.384412
      ],
      [
       74.239008,
       21.384799
      ],
      [
       74.239104,
       21.385505
      ],
      [
       74.238939,
       21.385887
      ],
      [
       74.239095,
       21.386025
      ],
      [
       74.23901,
       21.386547
      ],
      [
       74.239279,
       21.387981
      ],
      [
       74.238937,
       21.388344
      ],
      [
       74.238824,
       21.389599
      ],
      [
       74.238714,
       21.390122
      ],
      [
       74.238498,
       21.390482
      ],
      [
       74.23851,
       21.390883
      ],
      [
       74.23832,
       21.391266
      ],
      [
       74.238233,
       21.391741
      ],
      [
       74.238277,
       21.392354
      ],
      [
       74.238019,
       21.393022
      ],
      [
       74.237993,
       21.393826
      ],
      [
       74.237556,
       21.396058
      ],
      [
       74.23765,
       21.39667
      ],
      [
       74.23783,
       21.396783
      ],
      [
       74.237578,
       21.39679
      ],
      [
       74.23753,
       21.396862
      ],
      [
       74.237818,
       21.404792
      ],
      [
       74.237671,
       21.405788
      ],
      [
       74.237597,
       21.405838
      ],
      [
       74.237563,
       21.406382
      ],
      [
       74.237367,
       21.406576
      ],
      [
       74.236158,
       21.406584
      ],
      [
       74.23608,
       21.406515
      ],
      [
       74.234695,
       21.406528
      ],
      [
       74.234617,
       21.40646
      ],
      [
       74.233886,
       21.406455
      ],
      [
       74.233834,
       21.406386
      ],
      [
       74.233103,
       21.406381
      ],
      [
       74.232797,
       21.406271
      ],
      [
       74.232394,
       21.406258
      ],
      [
       74.232316,
       21.406189
      ],
      [
       74.231838,
       21.406202
      ],
      [
       74.231785,
       21.406133
      ],
      [
       74.231128,
       21.406079
      ],
      [
       74.230172,
       21.406128
      ],
      [
       74.230154,
       21.407191
      ],
      [
       74.230274,
       21.40785
      ],
      [
       74.230261,
       21.408252
      ],
      [
       74.230339,
       21.40832
      ],
      [
       74.230374,
       21.409477
      ],
      [
       74.230451,
       21.409546
      ],
      [
       74.23055,
       21.412
      ],
      [
       74.230428,
       21.412145
      ],
      [
       74.229924,
       21.412135
      ],
      [
       74.229876,
       21.412207
      ],
      [
       74.229628,
       21.416537
      ],
      [
       74.229507,
       21.416705
      ],
      [
       74.228626,
       21.416752
      ],
      [
       74.228578,
       21.416824
      ],
      [
       74.226687,
       21.41678
      ],
      [
       74.226718,
       21.416141
      ],
      [
       74.226835,
       21.415854
      ],
      [
       74.226846,
       21.415358
      ],
      [
       74.226919,
       21.415285
      ],
      [
       74.226887,
       21.414223
      ],
      [
       74.225628,
       21.414233
      ],
      [
       74.22552,
       21.41485
      ],
      [
       74.225447,
       21.414922
      ],
      [
       74.225455,
       21.415206
      ],
      [
       74.225314,
       21.41554
      ],
      [
       74.225254,
       21.416912
      ],
      [
       74.224349,
       21.416959
      ],
      [
       74.224275,
       21.417032
      ],
      [
       74.223721,
       21.417023
      ],
      [
       74.223647,
       21.417096
      ],
      [
       74.223093,
       21.417087
      ],
      [
       74.223044,
       21.417159
      ],
      [
       74.222188,
       21.417158
      ],
      [
       74.222114,
       21.417231
      ],
      [
       74.220047,
       21.417191
      ],
      [
       74.219969,
       21.417122
      ],
      [
       74.219616,
       21.417108
      ],
      [
       74.219563,
       21.417038
      ],
      [
       74.219082,
       21.416956
      ],
      [
       74.218597,
       21.416733
      ],
      [
       74.21837,
       21.416739
      ],
      [
       74.218139,
       21.41658
      ],
      [
       74.217785,
       21.416565
      ],
      [
       74.217708,
       21.416497
      ],
      [
       74.216271,
       21.416487
      ],
      [
       74.216223,
       21.416559
      ],
      [
       74.214909,
       21.416452
      ],
      [
       74.214857,
       21.416383
      ],
      [
       74.214681,
       21.416387
      ],
      [
       74.214273,
       21.416233
      ],
      [
       74.214117,
       21.416095
      ],
      [
       74.213813,
       21.416032
      ],
      [
       74.213426,
       21.415735
      ],
      [
       74.21325,
       21.41574
      ],
      [
       74.212863,
       21.415443
      ],
      [
       74.212584,
       21.41538
      ],
      [
       74.2123,
       21.415151
      ],
      [
       74.212071,
       21.415086
      ],
      [
       74.211864,
       21.414879
      ],
      [
       74.211584,
       21.414815
      ]
     ]
    ]
   }
  },
  {
   "type": "Feature",
   "id": "PRABHAG-02",
   "properties": {
    "prabhagId": "PRABHAG-02",
    "wardNumber": 2,
    "prabhagName": "Prabhag 2",
    "councillors": 2,
    "totalPopulation": 5864,
    "sc": 160,
    "st": 275,
    "areaKm2": 1.384,
    "personsPerKm2": 4238,
    "sharpSourceCoverage": 1.0,
    "boundaryEvidence": "traced",
    "sourceReference": "Nandurbar Municipal Council General Election 2025 FINAL MAP (wall copy, Nagar Parishad); DocScanner scan + wide board photograph",
    "digitisationMethod": "colour segmentation of printed boundary ink + cost-distance allocation from printed ward-number labels",
    "georeferencingMethod": "similarity fit: rotation from railway centreline vs OSM, scale from official 32.41 km2 council area, position from Nandurbar railway station",
    "resolutionQuality": "APPROXIMATE_DIGITISED_OFFICIAL_MAP_IMAGE",
    "requiresCitizenConfirmation": true,
    "isActive": false,
    "datasetVersion": "seewik-map-trace-v0.2"
   },
   "geometry": {
    "type": "Polygon",
    "coordinates": [
     [
      [
       74.24813,
       21.396583
      ],
      [
       74.243496,
       21.396681
      ],
      [
       74.243419,
       21.396613
      ],
      [
       74.242537,
       21.396636
      ],
      [
       74.242489,
       21.396708
      ],
      [
       74.239517,
       21.396763
      ],
      [
       74.239465,
       21.396693
      ],
      [
       74.237855,
       21.396783
      ],
      [
       74.237675,
       21.396669
      ],
      [
       74.237581,
       21.396058
      ],
      [
       74.238018,
       21.393825
      ],
      [
       74.238045,
       21.393022
      ],
      [
       74.238302,
       21.392353
      ],
      [
       74.238258,
       21.39174
      ],
      [
       74.238345,
       21.391265
      ],
      [
       74.238535,
       21.390882
      ],
      [
       74.238523,
       21.390481
      ],
      [
       74.238739,
       21.390121
      ],
      [
       74.238955,
       21.388934
      ],
      [
       74.238963,
       21.388343
      ],
      [
       74.239305,
       21.38798
      ],
      [
       74.239035,
       21.386546
      ],
      [
       74.23912,
       21.386024
      ],
      [
       74.238965,
       21.385886
      ],
      [
       74.23913,
       21.385504
      ],
      [
       74.239033,
       21.384798
      ],
      [
       74.239374,
       21.384411
      ],
      [
       74.239465,
       21.384078
      ],
      [
       74.239497,
       21.383463
      ],
      [
       74.239362,
       21.383159
      ],
      [
       74.239552,
       21.3828
      ],
      [
       74.239568,
       21.382469
      ],
      [
       74.23979,
       21.382321
      ],
      [
       74.239956,
       21.380285
      ],
      [
       74.240176,
       21.380066
      ],
      [
       74.242218,
       21.380084
      ],
      [
       74.242731,
       21.380401
      ],
      [
       74.242918,
       21.38075
      ],
      [
       74.243013,
       21.381386
      ],
      [
       74.243244,
       21.381545
      ],
      [
       74.243229,
       21.381876
      ],
      [
       74.243342,
       21.382298
      ],
      [
       74.243522,
       21.382412
      ],
      [
       74.24385,
       21.382427
      ],
      [
       74.245172,
       21.381967
      ],
      [
       74.245449,
       21.381959
      ],
      [
       74.245655,
       21.382096
      ],
      [
       74.245831,
       21.382941
      ],
      [
       74.245845,
       21.38339
      ],
      [
       74.24603,
       21.383692
      ],
      [
       74.246147,
       21.384232
      ],
      [
       74.246827,
       21.385065
      ],
      [
       74.246992,
       21.385533
      ],
      [
       74.2472,
       21.38574
      ],
      [
       74.247371,
       21.386397
      ],
      [
       74.247746,
       21.387143
      ],
      [
       74.247754,
       21.387403
      ],
      [
       74.247634,
       21.387619
      ],
      [
       74.247059,
       21.387752
      ],
      [
       74.245776,
       21.387833
      ],
      [
       74.245623,
       21.387766
      ],
      [
       74.244716,
       21.387766
      ],
      [
       74.244214,
       21.387851
      ],
      [
       74.244151,
       21.388254
      ],
      [
       74.244363,
       21.388603
      ],
      [
       74.244453,
       21.389073
      ],
      [
       74.244749,
       21.389703
      ],
      [
       74.244811,
       21.390103
      ],
      [
       74.244943,
       21.390312
      ],
      [
       74.244978,
       21.390618
      ],
      [
       74.245392,
       21.391836
      ],
      [
       74.245871,
       21.391847
      ],
      [
       74.246661,
       21.392133
      ],
      [
       74.247023,
       21.392431
      ],
      [
       74.248117,
       21.392803
      ],
      [
       74.248229,
       21.395683
      ],
      [
       74.248134,
       21.395874
      ],
      [
       74.24813,
       21.396583
      ]
     ]
    ]
   }
  },
  {
   "type": "Feature",
   "id": "PRABHAG-03",
   "properties": {
    "prabhagId": "PRABHAG-03",
    "wardNumber": 3,
    "prabhagName": "Prabhag 3",
    "councillors": 2,
    "totalPopulation": 5559,
    "sc": 574,
    "st": 789,
    "areaKm2": 1.407,
    "personsPerKm2": 3951,
    "sharpSourceCoverage": 1.0,
    "boundaryEvidence": "traced",
    "sourceReference": "Nandurbar Municipal Council General Election 2025 FINAL MAP (wall copy, Nagar Parishad); DocScanner scan + wide board photograph",
    "digitisationMethod": "colour segmentation of printed boundary ink + cost-distance allocation from printed ward-number labels",
    "georeferencingMethod": "similarity fit: rotation from railway centreline vs OSM, scale from official 32.41 km2 council area, position from Nandurbar railway station",
    "resolutionQuality": "APPROXIMATE_DIGITISED_OFFICIAL_MAP_IMAGE",
    "requiresCitizenConfirmation": true,
    "isActive": false,
    "datasetVersion": "seewik-map-trace-v0.2"
   },
   "geometry": {
    "type": "Polygon",
    "coordinates": [
     [
      [
       74.248155,
       21.396582
      ],
      [
       74.248159,
       21.395873
      ],
      [
       74.248254,
       21.395682
      ],
      [
       74.248143,
       21.392803
      ],
      [
       74.249537,
       21.391419
      ],
      [
       74.250235,
       21.391141
      ],
      [
       74.250749,
       21.390631
      ],
      [
       74.249872,
       21.388292
      ],
      [
       74.249743,
       21.388177
      ],
      [
       74.248945,
       21.388458
      ],
      [
       74.248743,
       21.388464
      ],
      [
       74.248479,
       21.388069
      ],
      [
       74.248232,
       21.38739
      ],
      [
       74.248659,
       21.387332
      ],
      [
       74.24903,
       21.387109
      ],
      [
       74.2491,
       21.386919
      ],
      [
       74.249402,
       21.386911
      ],
      [
       74.249723,
       21.38669
      ],
      [
       74.250148,
       21.386584
      ],
      [
       74.250469,
       21.386339
      ],
      [
       74.250694,
       21.386286
      ],
      [
       74.25084,
       21.386117
      ],
      [
       74.251067,
       21.386111
      ],
      [
       74.251187,
       21.385919
      ],
      [
       74.251489,
       21.385911
      ],
      [
       74.251783,
       21.385643
      ],
      [
       74.251983,
       21.385591
      ],
      [
       74.252353,
       21.385321
      ],
      [
       74.252779,
       21.385239
      ],
      [
       74.253118,
       21.384781
      ],
      [
       74.253109,
       21.384474
      ],
      [
       74.253717,
       21.383749
      ],
      [
       74.254002,
       21.383175
      ],
      [
       74.254346,
       21.382859
      ],
      [
       74.254437,
       21.382549
      ],
      [
       74.254634,
       21.382402
      ],
      [
       74.254622,
       21.381977
      ],
      [
       74.255445,
       21.380869
      ],
      [
       74.255793,
       21.380718
      ],
      [
       74.256626,
       21.380743
      ],
      [
       74.257001,
       21.380663
      ],
      [
       74.257887,
       21.380805
      ],
      [
       74.258255,
       21.380441
      ],
      [
       74.258878,
       21.380235
      ],
      [
       74.258943,
       21.380706
      ],
      [
       74.259199,
       21.380841
      ],
      [
       74.259341,
       21.381381
      ],
      [
       74.25932,
       21.38235
      ],
      [
       74.259225,
       21.382565
      ],
      [
       74.259259,
       21.382847
      ],
      [
       74.259156,
       21.383606
      ],
      [
       74.259214,
       21.384715
      ],
      [
       74.259136,
       21.385473
      ],
      [
       74.259293,
       21.386508
      ],
      [
       74.259656,
       21.386829
      ],
      [
       74.259945,
       21.387223
      ],
      [
       74.260512,
       21.387657
      ],
      [
       74.260656,
       21.388244
      ],
      [
       74.260285,
       21.38849
      ],
      [
       74.259781,
       21.388503
      ],
      [
       74.259704,
       21.388435
      ],
      [
       74.259528,
       21.388463
      ],
      [
       74.259476,
       21.388393
      ],
      [
       74.258971,
       21.388359
      ],
      [
       74.258893,
       21.388291
      ],
      [
       74.258063,
       21.388336
      ],
      [
       74.257941,
       21.388457
      ],
      [
       74.258075,
       21.389588
      ],
      [
       74.258006,
       21.389802
      ],
      [
       74.258123,
       21.390343
      ],
      [
       74.258052,
       21.390486
      ],
      [
       74.258141,
       21.390956
      ],
      [
       74.258097,
       21.39117
      ],
      [
       74.258287,
       21.392441
      ],
      [
       74.258116,
       21.392634
      ],
      [
       74.257185,
       21.392659
      ],
      [
       74.256884,
       21.392714
      ],
      [
       74.256836,
       21.392786
      ],
      [
       74.256533,
       21.392794
      ],
      [
       74.256361,
       21.392917
      ],
      [
       74.256489,
       21.393835
      ],
      [
       74.256645,
       21.393996
      ],
      [
       74.257157,
       21.395093
      ],
      [
       74.257633,
       21.395836
      ],
      [
       74.2577,
       21.396402
      ],
      [
       74.250923,
       21.396462
      ],
      [
       74.248155,
       21.396582
      ]
     ]
    ]
   }
  },
  {
   "type": "Feature",
   "id": "PRABHAG-04",
   "properties": {
    "prabhagId": "PRABHAG-04",
    "wardNumber": 4,
    "prabhagName": "Prabhag 4",
    "councillors": 2,
    "totalPopulation": 5384,
    "sc": 396,
    "st": 1066,
    "areaKm2": 1.321,
    "personsPerKm2": 4077,
    "sharpSourceCoverage": 1.0,
    "boundaryEvidence": "traced",
    "sourceReference": "Nandurbar Municipal Council General Election 2025 FINAL MAP (wall copy, Nagar Parishad); DocScanner scan + wide board photograph",
    "digitisationMethod": "colour segmentation of printed boundary ink + cost-distance allocation from printed ward-number labels",
    "georeferencingMethod": "similarity fit: rotation from railway centreline vs OSM, scale from official 32.41 km2 council area, position from Nandurbar railway station",
    "resolutionQuality": "APPROXIMATE_DIGITISED_OFFICIAL_MAP_IMAGE",
    "requiresCitizenConfirmation": true,
    "isActive": false,
    "datasetVersion": "seewik-map-trace-v0.2"
   },
   "geometry": {
    "type": "Polygon",
    "coordinates": [
     [
      [
       74.240122,
       21.37995
      ],
      [
       74.240119,
       21.379005
      ],
      [
       74.240239,
       21.378813
      ],
      [
       74.241923,
       21.378674
      ],
      [
       74.242242,
       21.378382
      ],
      [
       74.24226,
       21.378122
      ],
      [
       74.242145,
       21.377676
      ],
      [
       74.242135,
       21.377322
      ],
      [
       74.242206,
       21.377178
      ],
      [
       74.244022,
       21.377225
      ],
      [
       74.244217,
       21.377007
      ],
      [
       74.244284,
       21.376722
      ],
      [
       74.24571,
       21.376377
      ],
      [
       74.246104,
       21.376083
      ],
      [
       74.246092,
       21.375682
      ],
      [
       74.246163,
       21.375538
      ],
      [
       74.247325,
       21.375602
      ],
      [
       74.247481,
       21.375763
      ],
      [
       74.247861,
       21.375848
      ],
      [
       74.247992,
       21.376837
      ],
      [
       74.24836,
       21.37737
      ],
      [
       74.2485,
       21.377839
      ],
      [
       74.248867,
       21.378302
      ],
      [
       74.249174,
       21.378459
      ],
      [
       74.249253,
       21.378575
      ],
      [
       74.249583,
       21.378637
      ],
      [
       74.249705,
       21.378516
      ],
      [
       74.250311,
       21.378547
      ],
      [
       74.250534,
       21.378423
      ],
      [
       74.250886,
       21.378414
      ],
      [
       74.251073,
       21.377913
      ],
      [
       74.25166,
       21.377331
      ],
      [
       74.252288,
       21.377267
      ],
      [
       74.252587,
       21.377164
      ],
      [
       74.253217,
       21.377148
      ],
      [
       74.253362,
       21.376955
      ],
      [
       74.253837,
       21.376824
      ],
      [
       74.254031,
       21.376559
      ],
      [
       74.254074,
       21.376322
      ],
      [
       74.254317,
       21.376032
      ],
      [
       74.254567,
       21.375955
      ],
      [
       74.254788,
       21.37576
      ],
      [
       74.254831,
       21.375522
      ],
      [
       74.255199,
       21.375182
      ],
      [
       74.255779,
       21.37519
      ],
      [
       74.256028,
       21.375089
      ],
      [
       74.256305,
       21.375082
      ],
      [
       74.257042,
       21.375299
      ],
      [
       74.257973,
       21.375251
      ],
      [
       74.257971,
       21.37603
      ],
      [
       74.257902,
       21.376245
      ],
      [
       74.257999,
       21.376951
      ],
      [
       74.258284,
       21.377227
      ],
      [
       74.258443,
       21.378309
      ],
      [
       74.258878,
       21.380212
      ],
      [
       74.258254,
       21.380417
      ],
      [
       74.257887,
       21.380781
      ],
      [
       74.257407,
       21.380746
      ],
      [
       74.257202,
       21.380634
      ],
      [
       74.256625,
       21.38072
      ],
      [
       74.255793,
       21.380694
      ],
      [
       74.255444,
       21.380845
      ],
      [
       74.254596,
       21.381978
      ],
      [
       74.254609,
       21.382403
      ],
      [
       74.254412,
       21.38255
      ],
      [
       74.25432,
       21.382859
      ],
      [
       74.253977,
       21.383176
      ],
      [
       74.253692,
       21.38375
      ],
      [
       74.253084,
       21.384475
      ],
      [
       74.253093,
       21.384782
      ],
      [
       74.252778,
       21.385215
      ],
      [
       74.252353,
       21.385297
      ],
      [
       74.251983,
       21.385567
      ],
      [
       74.251783,
       21.385619
      ],
      [
       74.251488,
       21.385887
      ],
      [
       74.251186,
       21.385895
      ],
      [
       74.251066,
       21.386087
      ],
      [
       74.250839,
       21.386093
      ],
      [
       74.250693,
       21.386262
      ],
      [
       74.250468,
       21.386316
      ],
      [
       74.250148,
       21.38656
      ],
      [
       74.249723,
       21.386666
      ],
      [
       74.249402,
       21.386887
      ],
      [
       74.249099,
       21.386895
      ],
      [
       74.24903,
       21.387086
      ],
      [
       74.248658,
       21.387308
      ],
      [
       74.24783,
       21.387425
      ],
      [
       74.247771,
       21.387143
      ],
      [
       74.247396,
       21.386397
      ],
      [
       74.247225,
       21.38574
      ],
      [
       74.247017,
       21.385532
      ],
      [
       74.246852,
       21.385064
      ],
      [
       74.246172,
       21.384232
      ],
      [
       74.246055,
       21.383691
      ],
      [
       74.24587,
       21.383389
      ],
      [
       74.245856,
       21.382941
      ],
      [
       74.245653,
       21.382048
      ],
      [
       74.245448,
       21.381936
      ],
      [
       74.245171,
       21.381943
      ],
      [
       74.243849,
       21.382403
      ],
      [
       74.243521,
       21.382388
      ],
      [
       74.243368,
       21.382298
      ],
      [
       74.243254,
       21.381875
      ],
      [
       74.243269,
       21.381544
      ],
      [
       74.243038,
       21.381385
      ],
      [
       74.242915,
       21.380656
      ],
      [
       74.24273,
       21.380377
      ],
      [
       74.242217,
       21.38006
      ],
      [
       74.240201,
       21.380042
      ],
      [
       74.240122,
       21.37995
      ]
     ]
    ]
   }
  },
  {
   "type": "Feature",
   "id": "PRABHAG-05",
   "properties": {
    "prabhagId": "PRABHAG-05",
    "wardNumber": 5,
    "prabhagName": "Prabhag 5",
    "councillors": 2,
    "totalPopulation": 5189,
    "sc": 147,
    "st": 630,
    "areaKm2": 0.26,
    "personsPerKm2": 19980,
    "sharpSourceCoverage": 1.0,
    "boundaryEvidence": "traced",
    "sourceReference": "Nandurbar Municipal Council General Election 2025 FINAL MAP (wall copy, Nagar Parishad); DocScanner scan + wide board photograph",
    "digitisationMethod": "colour segmentation of printed boundary ink + cost-distance allocation from printed ward-number labels",
    "georeferencingMethod": "similarity fit: rotation from railway centreline vs OSM, scale from official 32.41 km2 council area, position from Nandurbar railway station",
    "resolutionQuality": "APPROXIMATE_DIGITISED_OFFICIAL_MAP_IMAGE",
    "requiresCitizenConfirmation": true,
    "isActive": false,
    "datasetVersion": "seewik-map-trace-v0.2"
   },
   "geometry": {
    "type": "Polygon",
    "coordinates": [
     [
      [
       74.250723,
       21.390632
      ],
      [
       74.250234,
       21.391117
      ],
      [
       74.249537,
       21.391396
      ],
      [
       74.248142,
       21.392779
      ],
      [
       74.247022,
       21.392407
      ],
      [
       74.24666,
       21.392109
      ],
      [
       74.245871,
       21.391823
      ],
      [
       74.245417,
       21.391835
      ],
      [
       74.245003,
       21.390617
      ],
      [
       74.244968,
       21.390311
      ],
      [
       74.244836,
       21.390102
      ],
      [
       74.244774,
       21.389702
      ],
      [
       74.244478,
       21.389072
      ],
      [
       74.244388,
       21.388602
      ],
      [
       74.244176,
       21.388253
      ],
      [
       74.244215,
       21.387874
      ],
      [
       74.244717,
       21.38779
      ],
      [
       74.245624,
       21.38779
      ],
      [
       74.245777,
       21.387857
      ],
      [
       74.24706,
       21.387776
      ],
      [
       74.247585,
       21.387667
      ],
      [
       74.247755,
       21.387427
      ],
      [
       74.248209,
       21.387438
      ],
      [
       74.248454,
       21.38807
      ],
      [
       74.248744,
       21.388487
      ],
      [
       74.248945,
       21.388482
      ],
      [
       74.249743,
       21.388201
      ],
      [
       74.249847,
       21.388293
      ],
      [
       74.250723,
       21.390632
      ]
     ]
    ]
   }
  },
  {
   "type": "Feature",
   "id": "PRABHAG-06",
   "properties": {
    "prabhagId": "PRABHAG-06",
    "wardNumber": 6,
    "prabhagName": "Prabhag 6",
    "councillors": 2,
    "totalPopulation": 5292,
    "sc": 519,
    "st": 947,
    "areaKm2": 5.978,
    "personsPerKm2": 885,
    "sharpSourceCoverage": 0.194,
    "boundaryEvidence": "mostly_inferred",
    "sourceReference": "Nandurbar Municipal Council General Election 2025 FINAL MAP (wall copy, Nagar Parishad); DocScanner scan + wide board photograph",
    "digitisationMethod": "colour segmentation of printed boundary ink + cost-distance allocation from printed ward-number labels",
    "georeferencingMethod": "similarity fit: rotation from railway centreline vs OSM, scale from official 32.41 km2 council area, position from Nandurbar railway station",
    "resolutionQuality": "APPROXIMATE_DIGITISED_OFFICIAL_MAP_IMAGE",
    "requiresCitizenConfirmation": true,
    "isActive": false,
    "datasetVersion": "seewik-map-trace-v0.2"
   },
   "geometry": {
    "type": "Polygon",
    "coordinates": [
     [
      [
       74.196307,
       21.395232
      ],
      [
       74.196308,
       21.394428
      ],
      [
       74.196071,
       21.39408
      ],
      [
       74.195689,
       21.393122
      ],
      [
       74.195532,
       21.392913
      ],
      [
       74.195728,
       21.391892
      ],
      [
       74.195491,
       21.38989
      ],
      [
       74.195917,
       21.388107
      ],
      [
       74.195862,
       21.387967
      ],
      [
       74.19597,
       21.38735
      ],
      [
       74.195916,
       21.387233
      ],
      [
       74.196008,
       21.386947
      ],
      [
       74.195953,
       21.386807
      ],
      [
       74.196252,
       21.385004
      ],
      [
       74.196197,
       21.384864
      ],
      [
       74.196378,
       21.384174
      ],
      [
       74.196324,
       21.384033
      ],
      [
       74.196498,
       21.383107
      ],
      [
       74.196444,
       21.382991
      ],
      [
       74.196572,
       21.382231
      ],
      [
       74.196552,
       21.381547
      ],
      [
       74.19666,
       21.380953
      ],
      [
       74.196606,
       21.380837
      ],
      [
       74.196673,
       21.380551
      ],
      [
       74.196107,
       21.378487
      ],
      [
       74.196198,
       21.378154
      ],
      [
       74.196445,
       21.378006
      ],
      [
       74.196578,
       21.377388
      ],
      [
       74.196179,
       21.37669
      ],
      [
       74.196648,
       21.374693
      ],
      [
       74.197594,
       21.37344
      ],
      [
       74.197936,
       21.3731
      ],
      [
       74.198176,
       21.372692
      ],
      [
       74.198497,
       21.372471
      ],
      [
       74.199324,
       21.372331
      ],
      [
       74.199845,
       21.372058
      ],
      [
       74.199852,
       21.37227
      ],
      [
       74.199983,
       21.372456
      ],
      [
       74.219648,
       21.371937
      ],
      [
       74.221889,
       21.372752
      ],
      [
       74.222846,
       21.372727
      ],
      [
       74.22412,
       21.37319
      ],
      [
       74.225455,
       21.373155
      ],
      [
       74.225977,
       21.372928
      ],
      [
       74.227085,
       21.372923
      ],
      [
       74.227027,
       21.373491
      ],
      [
       74.227156,
       21.373582
      ],
      [
       74.228666,
       21.373519
      ],
      [
       74.228914,
       21.373394
      ],
      [
       74.229115,
       21.373389
      ],
      [
       74.229185,
       21.373198
      ],
      [
       74.229309,
       21.373124
      ],
      [
       74.229536,
       21.373118
      ],
      [
       74.229545,
       21.373425
      ],
      [
       74.229678,
       21.373681
      ],
      [
       74.234231,
       21.377601
      ],
      [
       74.234664,
       21.377755
      ],
      [
       74.234623,
       21.378087
      ],
      [
       74.234305,
       21.378402
      ],
      [
       74.234366,
       21.378731
      ],
      [
       74.235425,
       21.378774
      ],
      [
       74.236558,
       21.378721
      ],
      [
       74.236863,
       21.378831
      ],
      [
       74.238901,
       21.378706
      ],
      [
       74.239407,
       21.378787
      ],
      [
       74.239381,
       21.379615
      ],
      [
       74.23917,
       21.38014
      ],
      [
       74.238295,
       21.380352
      ],
      [
       74.238074,
       21.380547
      ],
      [
       74.236951,
       21.380907
      ],
      [
       74.237001,
       21.381733
      ],
      [
       74.236675,
       21.381789
      ],
      [
       74.236356,
       21.382081
      ],
      [
       74.23647,
       21.382527
      ],
      [
       74.236653,
       21.382734
      ],
      [
       74.236743,
       21.383228
      ],
      [
       74.23561,
       21.383258
      ],
      [
       74.235239,
       21.38348
      ],
      [
       74.234684,
       21.383471
      ],
      [
       74.234088,
       21.383771
      ],
      [
       74.233513,
       21.383904
      ],
      [
       74.231676,
       21.383999
      ],
      [
       74.231448,
       21.383958
      ],
      [
       74.231161,
       21.383635
      ],
      [
       74.230097,
       21.383427
      ],
      [
       74.229588,
       21.383275
      ],
      [
       74.229382,
       21.383115
      ],
      [
       74.228755,
       21.383226
      ],
      [
       74.228612,
       21.38349
      ],
      [
       74.228387,
       21.383566
      ],
      [
       74.227827,
       21.384195
      ],
      [
       74.227832,
       21.384384
      ],
      [
       74.227988,
       21.384522
      ],
      [
       74.228009,
       21.38523
      ],
      [
       74.22728,
       21.386974
      ],
      [
       74.227288,
       21.387234
      ],
      [
       74.226818,
       21.38838
      ],
      [
       74.226671,
       21.388525
      ],
      [
       74.225527,
       21.389005
      ],
      [
       74.224771,
       21.389024
      ],
      [
       74.21977,
       21.391141
      ],
      [
       74.219689,
       21.390977
      ],
      [
       74.219781,
       21.389841
      ],
      [
       74.219904,
       21.389743
      ],
      [
       74.219954,
       21.388868
      ],
      [
       74.220114,
       21.388344
      ],
      [
       74.220184,
       21.387303
      ],
      [
       74.220128,
       21.387115
      ],
      [
       74.219873,
       21.387027
      ],
      [
       74.217522,
       21.386759
      ],
      [
       74.217317,
       21.386669
      ],
      [
       74.217263,
       21.386529
      ],
      [
       74.217327,
       21.386149
      ],
      [
       74.217225,
       21.386105
      ],
      [
       74.217242,
       21.385845
      ],
      [
       74.216974,
       21.385285
      ],
      [
       74.216996,
       21.38519
      ],
      [
       74.216892,
       21.385098
      ],
      [
       74.216991,
       21.384174
      ],
      [
       74.216936,
       21.384034
      ],
      [
       74.216181,
       21.384053
      ],
      [
       74.215782,
       21.384206
      ],
      [
       74.215759,
       21.384277
      ],
      [
       74.215507,
       21.384284
      ],
      [
       74.214986,
       21.384557
      ],
      [
       74.214483,
       21.384594
      ],
      [
       74.21415,
       21.38439
      ],
      [
       74.213566,
       21.384264
      ],
      [
       74.213005,
       21.384043
      ],
      [
       74.213044,
       21.383664
      ],
      [
       74.213216,
       21.383494
      ],
      [
       74.213292,
       21.382665
      ],
      [
       74.213543,
       21.382635
      ],
      [
       74.213614,
       21.382491
      ],
      [
       74.213814,
       21.382438
      ],
      [
       74.213911,
       21.381467
      ],
      [
       74.213856,
       21.381327
      ],
      [
       74.212598,
       21.381384
      ],
      [
       74.212552,
       21.381527
      ],
      [
       74.212327,
       21.38158
      ],
      [
       74.212251,
       21.382409
      ],
      [
       74.210792,
       21.382494
      ],
      [
       74.210699,
       21.381079
      ],
      [
       74.210311,
       21.380735
      ],
      [
       74.209606,
       21.380778
      ],
      [
       74.208834,
       21.381081
      ],
      [
       74.208638,
       21.381252
      ],
      [
       74.208039,
       21.381457
      ],
      [
       74.204909,
       21.382957
      ],
      [
       74.20477,
       21.383362
      ],
      [
       74.20384,
       21.385111
      ],
      [
       74.203102,
       21.385721
      ],
      [
       74.202891,
       21.386223
      ],
      [
       74.202645,
       21.386442
      ],
      [
       74.202197,
       21.387469
      ],
      [
       74.202003,
       21.387711
      ],
      [
       74.202006,
       21.387829
      ],
      [
       74.201312,
       21.389028
      ],
      [
       74.200942,
       21.389298
      ],
      [
       74.200697,
       21.390391
      ],
      [
       74.199846,
       21.390579
      ],
      [
       74.199723,
       21.390677
      ],
      [
       74.199661,
       21.391127
      ],
      [
       74.199541,
       21.391319
      ],
      [
       74.199481,
       21.391864
      ],
      [
       74.199129,
       21.3927
      ],
      [
       74.198738,
       21.393136
      ],
      [
       74.197821,
       21.394459
      ],
      [
       74.197283,
       21.395017
      ],
      [
       74.196786,
       21.395243
      ],
      [
       74.196307,
       21.395232
      ]
     ]
    ]
   }
  },
  {
   "type": "Feature",
   "id": "PRABHAG-07",
   "properties": {
    "prabhagId": "PRABHAG-07",
    "wardNumber": 7,
    "prabhagName": "Prabhag 7",
    "councillors": 2,
    "totalPopulation": 5745,
    "sc": 593,
    "st": 920,
    "areaKm2": 1.017,
    "personsPerKm2": 5648,
    "sharpSourceCoverage": 1.0,
    "boundaryEvidence": "traced",
    "sourceReference": "Nandurbar Municipal Council General Election 2025 FINAL MAP (wall copy, Nagar Parishad); DocScanner scan + wide board photograph",
    "digitisationMethod": "colour segmentation of printed boundary ink + cost-distance allocation from printed ward-number labels",
    "georeferencingMethod": "similarity fit: rotation from railway centreline vs OSM, scale from official 32.41 km2 council area, position from Nandurbar railway station",
    "resolutionQuality": "APPROXIMATE_DIGITISED_OFFICIAL_MAP_IMAGE",
    "requiresCitizenConfirmation": true,
    "isActive": false,
    "datasetVersion": "seewik-map-trace-v0.2"
   },
   "geometry": {
    "type": "Polygon",
    "coordinates": [
     [
      [
       74.239361,
       21.383135
      ],
      [
       74.238505,
       21.383158
      ],
      [
       74.23807,
       21.382933
      ],
      [
       74.237513,
       21.382853
      ],
      [
       74.237496,
       21.383114
      ],
      [
       74.237349,
       21.383283
      ],
      [
       74.237149,
       21.383336
      ],
      [
       74.236769,
       21.383251
      ],
      [
       74.236678,
       21.382734
      ],
      [
       74.236495,
       21.382526
      ],
      [
       74.236381,
       21.38208
      ],
      [
       74.236675,
       21.381812
      ],
      [
       74.237026,
       21.381732
      ],
      [
       74.236976,
       21.380907
      ],
      [
       74.237402,
       21.380825
      ],
      [
       74.238074,
       21.380571
      ],
      [
       74.238295,
       21.380376
      ],
      [
       74.23922,
       21.380115
      ],
      [
       74.239407,
       21.379614
      ],
      [
       74.239432,
       21.378787
      ],
      [
       74.239354,
       21.378718
      ],
      [
       74.2389,
       21.378683
      ],
      [
       74.236862,
       21.378807
      ],
      [
       74.236557,
       21.378697
      ],
      [
       74.235424,
       21.378751
      ],
      [
       74.234365,
       21.378708
      ],
      [
       74.23433,
       21.378401
      ],
      [
       74.234649,
       21.378086
      ],
      [
       74.234689,
       21.377754
      ],
      [
       74.23423,
       21.377577
      ],
      [
       74.229704,
       21.37368
      ],
      [
       74.22957,
       21.373424
      ],
      [
       74.229561,
       21.373117
      ],
      [
       74.230064,
       21.373104
      ],
      [
       74.230056,
       21.372821
      ],
      [
       74.230431,
       21.371889
      ],
      [
       74.231336,
       21.370991
      ],
      [
       74.231399,
       21.370565
      ],
      [
       74.231872,
       21.370363
      ],
      [
       74.23381,
       21.370288
      ],
      [
       74.233932,
       21.370167
      ],
      [
       74.234287,
       21.370229
      ],
      [
       74.235217,
       21.370133
      ],
      [
       74.235924,
       21.370209
      ],
      [
       74.236806,
       21.370186
      ],
      [
       74.236864,
       21.370444
      ],
      [
       74.237097,
       21.370651
      ],
      [
       74.238294,
       21.371068
      ],
      [
       74.238499,
       21.371204
      ],
      [
       74.239225,
       21.372721
      ],
      [
       74.239268,
       21.37331
      ],
      [
       74.239474,
       21.373447
      ],
      [
       74.239565,
       21.373988
      ],
      [
       74.239809,
       21.374548
      ],
      [
       74.240745,
       21.374665
      ],
      [
       74.242633,
       21.374615
      ],
      [
       74.243122,
       21.374957
      ],
      [
       74.243339,
       21.375447
      ],
      [
       74.243667,
       21.375486
      ],
      [
       74.243874,
       21.375669
      ],
      [
       74.246009,
       21.375424
      ],
      [
       74.246138,
       21.375515
      ],
      [
       74.246031,
       21.376156
      ],
      [
       74.245709,
       21.376353
      ],
      [
       74.244283,
       21.376698
      ],
      [
       74.244186,
       21.376819
      ],
      [
       74.244192,
       21.377008
      ],
      [
       74.244021,
       21.377201
      ],
      [
       74.242205,
       21.377154
      ],
      [
       74.24211,
       21.377322
      ],
      [
       74.242241,
       21.378335
      ],
      [
       74.241923,
       21.37865
      ],
      [
       74.240413,
       21.378737
      ],
      [
       74.240165,
       21.378862
      ],
      [
       74.240078,
       21.379313
      ],
      [
       74.240097,
       21.37995
      ],
      [
       74.240175,
       21.380043
      ],
      [
       74.239931,
       21.380286
      ],
      [
       74.239765,
       21.382322
      ],
      [
       74.239543,
       21.382469
      ],
      [
       74.239527,
       21.3828
      ],
      [
       74.239361,
       21.383135
      ]
     ]
    ]
   }
  },
  {
   "type": "Feature",
   "id": "PRABHAG-08",
   "properties": {
    "prabhagId": "PRABHAG-08",
    "wardNumber": 8,
    "prabhagName": "Prabhag 8",
    "councillors": 2,
    "totalPopulation": 5746,
    "sc": 640,
    "st": 1202,
    "areaKm2": 0.994,
    "personsPerKm2": 5783,
    "sharpSourceCoverage": 1.0,
    "boundaryEvidence": "traced",
    "sourceReference": "Nandurbar Municipal Council General Election 2025 FINAL MAP (wall copy, Nagar Parishad); DocScanner scan + wide board photograph",
    "digitisationMethod": "colour segmentation of printed boundary ink + cost-distance allocation from printed ward-number labels",
    "georeferencingMethod": "similarity fit: rotation from railway centreline vs OSM, scale from official 32.41 km2 council area, position from Nandurbar railway station",
    "resolutionQuality": "APPROXIMATE_DIGITISED_OFFICIAL_MAP_IMAGE",
    "requiresCitizenConfirmation": true,
    "isActive": false,
    "datasetVersion": "seewik-map-trace-v0.2"
   },
   "geometry": {
    "type": "Polygon",
    "coordinates": [
     [
      [
       74.242658,
       21.373764
      ],
      [
       74.242673,
       21.373433
      ],
      [
       74.243425,
       21.371594
      ],
      [
       74.243718,
       21.371279
      ],
      [
       74.24435,
       21.36968
      ],
      [
       74.244546,
       21.369486
      ],
      [
       74.2448,
       21.369574
      ],
      [
       74.244956,
       21.369735
      ],
      [
       74.246068,
       21.369847
      ],
      [
       74.248861,
       21.369703
      ],
      [
       74.248984,
       21.369605
      ],
      [
       74.249565,
       21.369637
      ],
      [
       74.249963,
       21.369485
      ],
      [
       74.250568,
       21.369492
      ],
      [
       74.251454,
       21.369611
      ],
      [
       74.251917,
       21.369929
      ],
      [
       74.252451,
       21.370104
      ],
      [
       74.252606,
       21.370218
      ],
      [
       74.252666,
       21.370547
      ],
      [
       74.252977,
       21.370823
      ],
      [
       74.254951,
       21.371102
      ],
      [
       74.25601,
       21.371144
      ],
      [
       74.256519,
       21.371296
      ],
      [
       74.25715,
       21.371327
      ],
      [
       74.25756,
       21.371576
      ],
      [
       74.257786,
       21.371523
      ],
      [
       74.25772,
       21.371855
      ],
      [
       74.257777,
       21.37209
      ],
      [
       74.257712,
       21.372423
      ],
      [
       74.257741,
       21.373414
      ],
      [
       74.257972,
       21.375227
      ],
      [
       74.257041,
       21.375275
      ],
      [
       74.256304,
       21.375058
      ],
      [
       74.256027,
       21.375066
      ],
      [
       74.255778,
       21.375167
      ],
      [
       74.255198,
       21.375158
      ],
      [
       74.254806,
       21.375523
      ],
      [
       74.254763,
       21.37576
      ],
      [
       74.254566,
       21.375931
      ],
      [
       74.254317,
       21.376008
      ],
      [
       74.254049,
       21.376323
      ],
      [
       74.254006,
       21.37656
      ],
      [
       74.253836,
       21.376801
      ],
      [
       74.253362,
       21.376931
      ],
      [
       74.253216,
       21.377124
      ],
      [
       74.252587,
       21.377141
      ],
      [
       74.252287,
       21.377243
      ],
      [
       74.251659,
       21.377307
      ],
      [
       74.251048,
       21.377914
      ],
      [
       74.250886,
       21.37839
      ],
      [
       74.250533,
       21.3784
      ],
      [
       74.25031,
       21.378524
      ],
      [
       74.249704,
       21.378492
      ],
      [
       74.249532,
       21.378615
      ],
      [
       74.249252,
       21.378552
      ],
      [
       74.249173,
       21.378436
      ],
      [
       74.248866,
       21.378278
      ],
      [
       74.248526,
       21.377838
      ],
      [
       74.248385,
       21.37737
      ],
      [
       74.248017,
       21.376836
      ],
      [
       74.247943,
       21.376058
      ],
      [
       74.247834,
       21.375801
      ],
      [
       74.24748,
       21.37574
      ],
      [
       74.247324,
       21.375579
      ],
      [
       74.246163,
       21.375515
      ],
      [
       74.246008,
       21.375401
      ],
      [
       74.244626,
       21.375531
      ],
      [
       74.244608,
       21.374941
      ],
      [
       74.244938,
       21.374177
      ],
      [
       74.244933,
       21.373988
      ],
      [
       74.243821,
       21.373899
      ],
      [
       74.243413,
       21.373721
      ],
      [
       74.242658,
       21.373764
      ]
     ]
    ]
   }
  },
  {
   "type": "Feature",
   "id": "PRABHAG-09",
   "properties": {
    "prabhagId": "PRABHAG-09",
    "wardNumber": 9,
    "prabhagName": "Prabhag 9",
    "councillors": 2,
    "totalPopulation": 5508,
    "sc": 303,
    "st": 1702,
    "areaKm2": 0.751,
    "personsPerKm2": 7337,
    "sharpSourceCoverage": 1.0,
    "boundaryEvidence": "traced",
    "sourceReference": "Nandurbar Municipal Council General Election 2025 FINAL MAP (wall copy, Nagar Parishad); DocScanner scan + wide board photograph",
    "digitisationMethod": "colour segmentation of printed boundary ink + cost-distance allocation from printed ward-number labels",
    "georeferencingMethod": "similarity fit: rotation from railway centreline vs OSM, scale from official 32.41 km2 council area, position from Nandurbar railway station",
    "resolutionQuality": "APPROXIMATE_DIGITISED_OFFICIAL_MAP_IMAGE",
    "requiresCitizenConfirmation": true,
    "isActive": false,
    "datasetVersion": "seewik-map-trace-v0.2"
   },
   "geometry": {
    "type": "Polygon",
    "coordinates": [
     [
      [
       74.25918,
       21.37014
      ],
      [
       74.258175,
       21.370213
      ],
      [
       74.257873,
       21.371072
      ],
      [
       74.257785,
       21.371499
      ],
      [
       74.25756,
       21.371553
      ],
      [
       74.257149,
       21.371303
      ],
      [
       74.252976,
       21.370799
      ],
      [
       74.252691,
       21.370547
      ],
      [
       74.252631,
       21.370218
      ],
      [
       74.252528,
       21.370126
      ],
      [
       74.251916,
       21.369906
      ],
      [
       74.251327,
       21.369567
      ],
      [
       74.249963,
       21.369461
      ],
      [
       74.249564,
       21.369613
      ],
      [
       74.248984,
       21.369581
      ],
      [
       74.24886,
       21.369679
      ],
      [
       74.246068,
       21.369824
      ],
      [
       74.245361,
       21.369771
      ],
      [
       74.245354,
       21.369535
      ],
      [
       74.246036,
       21.367911
      ],
      [
       74.246011,
       21.367085
      ],
      [
       74.246388,
       21.366201
      ],
      [
       74.24636,
       21.36528
      ],
      [
       74.246427,
       21.364995
      ],
      [
       74.246728,
       21.36494
      ],
      [
       74.247061,
       21.36512
      ],
      [
       74.24731,
       21.365019
      ],
      [
       74.247456,
       21.364873
      ],
      [
       74.247475,
       21.36466
      ],
      [
       74.247287,
       21.364263
      ],
      [
       74.247192,
       21.363604
      ],
      [
       74.24729,
       21.363507
      ],
      [
       74.247789,
       21.363352
      ],
      [
       74.248406,
       21.362935
      ],
      [
       74.248834,
       21.3629
      ],
      [
       74.24924,
       21.363007
      ],
      [
       74.249551,
       21.363306
      ],
      [
       74.250038,
       21.363553
      ],
      [
       74.250688,
       21.364245
      ],
      [
       74.25102,
       21.364401
      ],
      [
       74.251258,
       21.364749
      ],
      [
       74.251689,
       21.364833
      ],
      [
       74.252226,
       21.365102
      ],
      [
       74.252931,
       21.365083
      ],
      [
       74.253111,
       21.365197
      ],
      [
       74.25427,
       21.36519
      ],
      [
       74.254627,
       21.365346
      ],
      [
       74.255004,
       21.365312
      ],
      [
       74.256143,
       21.365471
      ],
      [
       74.256722,
       21.365456
      ],
      [
       74.257035,
       21.365826
      ],
      [
       74.257043,
       21.366936
      ],
      [
       74.257315,
       21.36759
      ],
      [
       74.257438,
       21.368343
      ],
      [
       74.257741,
       21.369209
      ],
      [
       74.258,
       21.369415
      ],
      [
       74.25803,
       21.369579
      ],
      [
       74.258132,
       21.369624
      ],
      [
       74.258293,
       21.36995
      ],
      [
       74.25918,
       21.37014
      ]
     ]
    ]
   }
  },
  {
   "type": "Feature",
   "id": "PRABHAG-10",
   "properties": {
    "prabhagId": "PRABHAG-10",
    "wardNumber": 10,
    "prabhagName": "Prabhag 10",
    "councillors": 2,
    "totalPopulation": 5550,
    "sc": 113,
    "st": 399,
    "areaKm2": 0.224,
    "personsPerKm2": 24810,
    "sharpSourceCoverage": 1.0,
    "boundaryEvidence": "traced",
    "sourceReference": "Nandurbar Municipal Council General Election 2025 FINAL MAP (wall copy, Nagar Parishad); DocScanner scan + wide board photograph",
    "digitisationMethod": "colour segmentation of printed boundary ink + cost-distance allocation from printed ward-number labels",
    "georeferencingMethod": "similarity fit: rotation from railway centreline vs OSM, scale from official 32.41 km2 council area, position from Nandurbar railway station",
    "resolutionQuality": "APPROXIMATE_DIGITISED_OFFICIAL_MAP_IMAGE",
    "requiresCitizenConfirmation": true,
    "isActive": false,
    "datasetVersion": "seewik-map-trace-v0.2"
   },
   "geometry": {
    "type": "Polygon",
    "coordinates": [
     [
      [
       74.245335,
       21.369772
      ],
      [
       74.244956,
       21.369711
      ],
      [
       74.2448,
       21.36955
      ],
      [
       74.24434,
       21.369349
      ],
      [
       74.24408,
       21.369096
      ],
      [
       74.243889,
       21.368605
      ],
      [
       74.243766,
       21.368703
      ],
      [
       74.243515,
       21.36871
      ],
      [
       74.243105,
       21.368484
      ],
      [
       74.242624,
       21.368426
      ],
      [
       74.242494,
       21.368288
      ],
      [
       74.242039,
       21.368252
      ],
      [
       74.241657,
       21.368121
      ],
      [
       74.241554,
       21.367179
      ],
      [
       74.241439,
       21.366733
      ],
      [
       74.241285,
       21.366619
      ],
      [
       74.241271,
       21.366147
      ],
      [
       74.241167,
       21.366055
      ],
      [
       74.240891,
       21.366086
      ],
      [
       74.240682,
       21.365831
      ],
      [
       74.240539,
       21.365292
      ],
      [
       74.240532,
       21.365032
      ],
      [
       74.240604,
       21.364912
      ],
      [
       74.241281,
       21.364823
      ],
      [
       74.243069,
       21.364776
      ],
      [
       74.243528,
       21.364953
      ],
      [
       74.244308,
       21.364933
      ],
      [
       74.244679,
       21.364687
      ],
      [
       74.24488,
       21.364681
      ],
      [
       74.246402,
       21.364996
      ],
      [
       74.246335,
       21.365281
      ],
      [
       74.246362,
       21.366201
      ],
      [
       74.245986,
       21.367085
      ],
      [
       74.24601,
       21.367912
      ],
      [
       74.245328,
       21.369536
      ],
      [
       74.245335,
       21.369772
      ]
     ]
    ]
   }
  },
  {
   "type": "Feature",
   "id": "PRABHAG-11",
   "properties": {
    "prabhagId": "PRABHAG-11",
    "wardNumber": 11,
    "prabhagName": "Prabhag 11",
    "councillors": 2,
    "totalPopulation": 4881,
    "sc": 64,
    "st": 28,
    "areaKm2": 0.436,
    "personsPerKm2": 11193,
    "sharpSourceCoverage": 1.0,
    "boundaryEvidence": "traced",
    "sourceReference": "Nandurbar Municipal Council General Election 2025 FINAL MAP (wall copy, Nagar Parishad); DocScanner scan + wide board photograph",
    "digitisationMethod": "colour segmentation of printed boundary ink + cost-distance allocation from printed ward-number labels",
    "georeferencingMethod": "similarity fit: rotation from railway centreline vs OSM, scale from official 32.41 km2 council area, position from Nandurbar railway station",
    "resolutionQuality": "APPROXIMATE_DIGITISED_OFFICIAL_MAP_IMAGE",
    "requiresCitizenConfirmation": true,
    "isActive": false,
    "datasetVersion": "seewik-map-trace-v0.2"
   },
   "geometry": {
    "type": "Polygon",
    "coordinates": [
     [
      [
       74.244601,
       21.375532
      ],
      [
       74.243874,
       21.375646
      ],
      [
       74.243667,
       21.375462
      ],
      [
       74.243338,
       21.375424
      ],
      [
       74.243147,
       21.374956
      ],
      [
       74.242633,
       21.374592
      ],
      [
       74.240744,
       21.374642
      ],
      [
       74.239782,
       21.374502
      ],
      [
       74.239591,
       21.373987
      ],
      [
       74.239499,
       21.373446
      ],
      [
       74.239293,
       21.37331
      ],
      [
       74.23925,
       21.37272
      ],
      [
       74.238524,
       21.371204
      ],
      [
       74.238395,
       21.371089
      ],
      [
       74.238354,
       21.36972
      ],
      [
       74.238194,
       21.369417
      ],
      [
       74.238189,
       21.369252
      ],
      [
       74.238033,
       21.369114
      ],
      [
       74.238027,
       21.368902
      ],
      [
       74.238193,
       21.368543
      ],
      [
       74.238182,
       21.368189
      ],
      [
       74.238074,
       21.367932
      ],
      [
       74.23806,
       21.367483
      ],
      [
       74.237925,
       21.36718
      ],
      [
       74.238647,
       21.366877
      ],
      [
       74.23905,
       21.366867
      ],
      [
       74.239746,
       21.366565
      ],
      [
       74.240149,
       21.366554
      ],
      [
       74.240671,
       21.366328
      ],
      [
       74.240789,
       21.366065
      ],
      [
       74.241168,
       21.366078
      ],
      [
       74.241245,
       21.366147
      ],
      [
       74.24126,
       21.366619
      ],
      [
       74.241414,
       21.366733
      ],
      [
       74.241528,
       21.367179
      ],
      [
       74.241632,
       21.368121
      ],
      [
       74.241939,
       21.368255
      ],
      [
       74.242495,
       21.368311
      ],
      [
       74.242625,
       21.36845
      ],
      [
       74.243105,
       21.368508
      ],
      [
       74.243515,
       21.368733
      ],
      [
       74.243767,
       21.368727
      ],
      [
       74.24389,
       21.368629
      ],
      [
       74.243895,
       21.368794
      ],
      [
       74.244055,
       21.369097
      ],
      [
       74.244521,
       21.369486
      ],
      [
       74.244325,
       21.369681
      ],
      [
       74.243692,
       21.37128
      ],
      [
       74.243399,
       21.371595
      ],
      [
       74.242648,
       21.373434
      ],
      [
       74.242633,
       21.373765
      ],
      [
       74.243413,
       21.373744
      ],
      [
       74.243822,
       21.373923
      ],
      [
       74.244908,
       21.373988
      ],
      [
       74.244913,
       21.374177
      ],
      [
       74.244583,
       21.374942
      ],
      [
       74.244601,
       21.375532
      ]
     ]
    ]
   }
  },
  {
   "type": "Feature",
   "id": "PRABHAG-12",
   "properties": {
    "prabhagId": "PRABHAG-12",
    "wardNumber": 12,
    "prabhagName": "Prabhag 12",
    "councillors": 2,
    "totalPopulation": 5453,
    "sc": 1,
    "st": 8,
    "areaKm2": 0.118,
    "personsPerKm2": 46254,
    "sharpSourceCoverage": 1.0,
    "boundaryEvidence": "traced",
    "sourceReference": "Nandurbar Municipal Council General Election 2025 FINAL MAP (wall copy, Nagar Parishad); DocScanner scan + wide board photograph",
    "digitisationMethod": "colour segmentation of printed boundary ink + cost-distance allocation from printed ward-number labels",
    "georeferencingMethod": "similarity fit: rotation from railway centreline vs OSM, scale from official 32.41 km2 council area, position from Nandurbar railway station",
    "resolutionQuality": "APPROXIMATE_DIGITISED_OFFICIAL_MAP_IMAGE",
    "requiresCitizenConfirmation": true,
    "isActive": false,
    "datasetVersion": "seewik-map-trace-v0.2"
   },
   "geometry": {
    "type": "Polygon",
    "coordinates": [
     [
      [
       74.23837,
       21.37109
      ],
      [
       74.237096,
       21.370627
      ],
      [
       74.236889,
       21.370444
      ],
      [
       74.236805,
       21.370162
      ],
      [
       74.235722,
       21.370167
      ],
      [
       74.235695,
       21.369294
      ],
      [
       74.235534,
       21.368967
      ],
      [
       74.235522,
       21.368542
      ],
      [
       74.235361,
       21.368239
      ],
      [
       74.235354,
       21.368003
      ],
      [
       74.235224,
       21.367865
      ],
      [
       74.234468,
       21.367861
      ],
      [
       74.234504,
       21.367388
      ],
      [
       74.23722,
       21.366371
      ],
      [
       74.237463,
       21.366885
      ],
      [
       74.237422,
       21.367217
      ],
      [
       74.237875,
       21.367181
      ],
      [
       74.238035,
       21.367484
      ],
      [
       74.238167,
       21.368544
      ],
      [
       74.238002,
       21.368902
      ],
      [
       74.238008,
       21.369115
      ],
      [
       74.238164,
       21.369252
      ],
      [
       74.238168,
       21.369418
      ],
      [
       74.238329,
       21.36972
      ],
      [
       74.23837,
       21.37109
      ]
     ]
    ]
   }
  },
  {
   "type": "Feature",
   "id": "PRABHAG-13",
   "properties": {
    "prabhagId": "PRABHAG-13",
    "wardNumber": 13,
    "prabhagName": "Prabhag 13",
    "councillors": 2,
    "totalPopulation": 5218,
    "sc": 1051,
    "st": 956,
    "areaKm2": 0.119,
    "personsPerKm2": 43949,
    "sharpSourceCoverage": 1.0,
    "boundaryEvidence": "traced",
    "sourceReference": "Nandurbar Municipal Council General Election 2025 FINAL MAP (wall copy, Nagar Parishad); DocScanner scan + wide board photograph",
    "digitisationMethod": "colour segmentation of printed boundary ink + cost-distance allocation from printed ward-number labels",
    "georeferencingMethod": "similarity fit: rotation from railway centreline vs OSM, scale from official 32.41 km2 council area, position from Nandurbar railway station",
    "resolutionQuality": "APPROXIMATE_DIGITISED_OFFICIAL_MAP_IMAGE",
    "requiresCitizenConfirmation": true,
    "isActive": false,
    "datasetVersion": "seewik-map-trace-v0.2"
   },
   "geometry": {
    "type": "Polygon",
    "coordinates": [
     [
      [
       74.235696,
       21.370168
      ],
      [
       74.235216,
       21.37011
      ],
      [
       74.234286,
       21.370205
      ],
      [
       74.233932,
       21.370143
      ],
      [
       74.233809,
       21.370265
      ],
      [
       74.232073,
       21.370334
      ],
      [
       74.232195,
       21.370213
      ],
      [
       74.232137,
       21.3666
      ],
      [
       74.232232,
       21.366385
      ],
      [
       74.233556,
       21.366846
      ],
      [
       74.233891,
       21.367097
      ],
      [
       74.234222,
       21.367206
      ],
      [
       74.234455,
       21.367413
      ],
      [
       74.234469,
       21.367885
      ],
      [
       74.235276,
       21.367911
      ],
      [
       74.235336,
       21.36824
      ],
      [
       74.235496,
       21.368543
      ],
      [
       74.235509,
       21.368968
      ],
      [
       74.23567,
       21.369294
      ],
      [
       74.235696,
       21.370168
      ]
     ]
    ]
   }
  },
  {
   "type": "Feature",
   "id": "PRABHAG-14",
   "properties": {
    "prabhagId": "PRABHAG-14",
    "wardNumber": 14,
    "prabhagName": "Prabhag 14",
    "councillors": 2,
    "totalPopulation": 5247,
    "sc": 452,
    "st": 477,
    "areaKm2": 3.098,
    "personsPerKm2": 1694,
    "sharpSourceCoverage": 0.227,
    "boundaryEvidence": "mostly_inferred",
    "sourceReference": "Nandurbar Municipal Council General Election 2025 FINAL MAP (wall copy, Nagar Parishad); DocScanner scan + wide board photograph",
    "digitisationMethod": "colour segmentation of printed boundary ink + cost-distance allocation from printed ward-number labels",
    "georeferencingMethod": "similarity fit: rotation from railway centreline vs OSM, scale from official 32.41 km2 council area, position from Nandurbar railway station",
    "resolutionQuality": "APPROXIMATE_DIGITISED_OFFICIAL_MAP_IMAGE",
    "requiresCitizenConfirmation": true,
    "isActive": false,
    "datasetVersion": "seewik-map-trace-v0.2"
   },
   "geometry": {
    "type": "Polygon",
    "coordinates": [
     [
      [
       74.232204,
       21.366315
      ],
      [
       74.232112,
       21.366601
      ],
      [
       74.23217,
       21.370214
      ],
      [
       74.232048,
       21.370335
      ],
      [
       74.231871,
       21.370339
      ],
      [
       74.231374,
       21.370565
      ],
      [
       74.231311,
       21.370992
      ],
      [
       74.230406,
       21.37189
      ],
      [
       74.230031,
       21.372821
      ],
      [
       74.230039,
       21.373105
      ],
      [
       74.229308,
       21.3731
      ],
      [
       74.22916,
       21.373199
      ],
      [
       74.229115,
       21.373365
      ],
      [
       74.228913,
       21.37337
      ],
      [
       74.228665,
       21.373495
      ],
      [
       74.227079,
       21.373537
      ],
      [
       74.227085,
       21.372899
      ],
      [
       74.225976,
       21.372905
      ],
      [
       74.225454,
       21.373131
      ],
      [
       74.224119,
       21.373166
      ],
      [
       74.222846,
       21.372704
      ],
      [
       74.221889,
       21.372729
      ],
      [
       74.219647,
       21.371914
      ],
      [
       74.199982,
       21.372432
      ],
      [
       74.199847,
       21.372128
      ],
      [
       74.19987,
       21.372033
      ],
      [
       74.20054,
       21.371708
      ],
      [
       74.201341,
       21.371522
      ],
      [
       74.204553,
       21.371059
      ],
      [
       74.205804,
       21.37079
      ],
      [
       74.206207,
       21.37078
      ],
      [
       74.208212,
       21.37042
      ],
      [
       74.21017,
       21.370155
      ],
      [
       74.212156,
       21.369985
      ],
      [
       74.212203,
       21.369889
      ],
      [
       74.212403,
       21.369837
      ],
      [
       74.212464,
       21.369339
      ],
      [
       74.212399,
       21.368868
      ],
      [
       74.212466,
       21.368583
      ],
      [
       74.212375,
       21.367215
      ],
      [
       74.212618,
       21.365224
      ],
      [
       74.212712,
       21.365009
      ],
      [
       74.213032,
       21.363064
      ],
      [
       74.213129,
       21.362943
      ],
      [
       74.214387,
       21.362886
      ],
      [
       74.214484,
       21.362765
      ],
      [
       74.215102,
       21.360694
      ],
      [
       74.21512,
       21.360433
      ],
      [
       74.215241,
       21.360289
      ],
      [
       74.215632,
       21.359026
      ],
      [
       74.216129,
       21.35795
      ],
      [
       74.216124,
       21.357785
      ],
      [
       74.216363,
       21.357353
      ],
      [
       74.217058,
       21.355327
      ],
      [
       74.217156,
       21.35523
      ],
      [
       74.217283,
       21.354423
      ],
      [
       74.217205,
       21.354354
      ],
      [
       74.217078,
       21.353484
      ],
      [
       74.216887,
       21.352969
      ],
      [
       74.216669,
       21.351604
      ],
      [
       74.216592,
       21.351536
      ],
      [
       74.216629,
       21.351086
      ],
      [
       74.216845,
       21.350726
      ],
      [
       74.216708,
       21.351225
      ],
      [
       74.217013,
       21.352139
      ],
      [
       74.21702,
       21.352375
      ],
      [
       74.217323,
       21.35239
      ],
      [
       74.225037,
       21.359227
      ],
      [
       74.226461,
       21.36219
      ],
      [
       74.226486,
       21.363016
      ],
      [
       74.226619,
       21.363249
      ],
      [
       74.226626,
       21.363485
      ],
      [
       74.230281,
       21.36353
      ],
      [
       74.230313,
       21.363742
      ],
      [
       74.231245,
       21.364568
      ],
      [
       74.231757,
       21.365689
      ],
      [
       74.23199,
       21.365895
      ],
      [
       74.232204,
       21.366315
      ]
     ]
    ]
   }
  },
  {
   "type": "Feature",
   "id": "PRABHAG-15",
   "properties": {
    "prabhagId": "PRABHAG-15",
    "wardNumber": 15,
    "prabhagName": "Prabhag 15",
    "councillors": 2,
    "totalPopulation": 5050,
    "sc": 46,
    "st": 31,
    "areaKm2": 0.154,
    "personsPerKm2": 32814,
    "sharpSourceCoverage": 1.0,
    "boundaryEvidence": "traced",
    "sourceReference": "Nandurbar Municipal Council General Election 2025 FINAL MAP (wall copy, Nagar Parishad); DocScanner scan + wide board photograph",
    "digitisationMethod": "colour segmentation of printed boundary ink + cost-distance allocation from printed ward-number labels",
    "georeferencingMethod": "similarity fit: rotation from railway centreline vs OSM, scale from official 32.41 km2 council area, position from Nandurbar railway station",
    "resolutionQuality": "APPROXIMATE_DIGITISED_OFFICIAL_MAP_IMAGE",
    "requiresCitizenConfirmation": true,
    "isActive": false,
    "datasetVersion": "seewik-map-trace-v0.2"
   },
   "geometry": {
    "type": "Polygon",
    "coordinates": [
     [
      [
       74.231271,
       21.364615
      ],
      [
       74.232958,
       21.364547
      ],
      [
       74.233337,
       21.364607
      ],
      [
       74.233509,
       21.364461
      ],
      [
       74.234214,
       21.364419
      ],
      [
       74.234335,
       21.364274
      ],
      [
       74.235065,
       21.364255
      ],
      [
       74.235314,
       21.36413
      ],
      [
       74.236598,
       21.364096
      ],
      [
       74.237145,
       21.363869
      ],
      [
       74.237253,
       21.364103
      ],
      [
       74.237262,
       21.364386
      ],
      [
       74.236987,
       21.364464
      ],
      [
       74.237153,
       21.364956
      ],
      [
       74.237194,
       21.366325
      ],
      [
       74.234454,
       21.367389
      ],
      [
       74.233657,
       21.366867
      ],
      [
       74.232231,
       21.366361
      ],
      [
       74.232015,
       21.365894
      ],
      [
       74.231782,
       21.365688
      ],
      [
       74.231271,
       21.364615
      ]
     ]
    ]
   }
  },
  {
   "type": "Feature",
   "id": "PRABHAG-16",
   "properties": {
    "prabhagId": "PRABHAG-16",
    "wardNumber": 16,
    "prabhagName": "Prabhag 16",
    "councillors": 2,
    "totalPopulation": 5382,
    "sc": 90,
    "st": 68,
    "areaKm2": 0.101,
    "personsPerKm2": 53335,
    "sharpSourceCoverage": 1.0,
    "boundaryEvidence": "traced",
    "sourceReference": "Nandurbar Municipal Council General Election 2025 FINAL MAP (wall copy, Nagar Parishad); DocScanner scan + wide board photograph",
    "digitisationMethod": "colour segmentation of printed boundary ink + cost-distance allocation from printed ward-number labels",
    "georeferencingMethod": "similarity fit: rotation from railway centreline vs OSM, scale from official 32.41 km2 council area, position from Nandurbar railway station",
    "resolutionQuality": "APPROXIMATE_DIGITISED_OFFICIAL_MAP_IMAGE",
    "requiresCitizenConfirmation": true,
    "isActive": false,
    "datasetVersion": "seewik-map-trace-v0.2"
   },
   "geometry": {
    "type": "Polygon",
    "coordinates": [
     [
      [
       74.237447,
       21.367216
      ],
      [
       74.237488,
       21.366884
      ],
      [
       74.23722,
       21.366348
      ],
      [
       74.237178,
       21.364955
      ],
      [
       74.237017,
       21.364629
      ],
      [
       74.237036,
       21.364439
      ],
      [
       74.237287,
       21.364385
      ],
      [
       74.23728,
       21.364149
      ],
      [
       74.238992,
       21.364104
      ],
      [
       74.239247,
       21.364215
      ],
      [
       74.24018,
       21.364214
      ],
      [
       74.240283,
       21.364306
      ],
      [
       74.240294,
       21.36466
      ],
      [
       74.240578,
       21.364889
      ],
      [
       74.240514,
       21.365292
      ],
      [
       74.240629,
       21.365762
      ],
      [
       74.240789,
       21.366041
      ],
      [
       74.240695,
       21.36628
      ],
      [
       74.240148,
       21.36653
      ],
      [
       74.239745,
       21.366541
      ],
      [
       74.239049,
       21.366843
      ],
      [
       74.238646,
       21.366854
      ],
      [
       74.2379,
       21.36718
      ],
      [
       74.237447,
       21.367216
      ]
     ]
    ]
   }
  },
  {
   "type": "Feature",
   "id": "PRABHAG-17",
   "properties": {
    "prabhagId": "PRABHAG-17",
    "wardNumber": 17,
    "prabhagName": "Prabhag 17",
    "councillors": 2,
    "totalPopulation": 5602,
    "sc": 177,
    "st": 1058,
    "areaKm2": 3.697,
    "personsPerKm2": 1515,
    "sharpSourceCoverage": 0.234,
    "boundaryEvidence": "mostly_inferred",
    "sourceReference": "Nandurbar Municipal Council General Election 2025 FINAL MAP (wall copy, Nagar Parishad); DocScanner scan + wide board photograph",
    "digitisationMethod": "colour segmentation of printed boundary ink + cost-distance allocation from printed ward-number labels",
    "georeferencingMethod": "similarity fit: rotation from railway centreline vs OSM, scale from official 32.41 km2 council area, position from Nandurbar railway station",
    "resolutionQuality": "APPROXIMATE_DIGITISED_OFFICIAL_MAP_IMAGE",
    "requiresCitizenConfirmation": true,
    "isActive": false,
    "datasetVersion": "seewik-map-trace-v0.2"
   },
   "geometry": {
    "type": "Polygon",
    "coordinates": [
     [
      [
       74.23712,
       21.363846
      ],
      [
       74.236597,
       21.364073
      ],
      [
       74.235313,
       21.364106
      ],
      [
       74.235065,
       21.364231
      ],
      [
       74.234335,
       21.36425
      ],
      [
       74.234213,
       21.364395
      ],
      [
       74.233509,
       21.364438
      ],
      [
       74.233337,
       21.364584
      ],
      [
       74.232957,
       21.364523
      ],
      [
       74.23127,
       21.364567
      ],
      [
       74.230338,
       21.363741
      ],
      [
       74.230281,
       21.363507
      ],
      [
       74.226651,
       21.363484
      ],
      [
       74.226644,
       21.363248
      ],
      [
       74.226511,
       21.363015
      ],
      [
       74.226486,
       21.362189
      ],
      [
       74.225062,
       21.359227
      ],
      [
       74.217322,
       21.352367
      ],
      [
       74.217045,
       21.352374
      ],
      [
       74.217038,
       21.352138
      ],
      [
       74.216734,
       21.351225
      ],
      [
       74.216868,
       21.350678
      ],
      [
       74.21759,
       21.349548
      ],
      [
       74.217993,
       21.348687
      ],
      [
       74.218503,
       21.348036
      ],
      [
       74.219151,
       21.346956
      ],
      [
       74.220547,
       21.34562
      ],
      [
       74.220819,
       21.345447
      ],
      [
       74.221919,
       21.344332
      ],
      [
       74.221995,
       21.34433
      ],
      [
       74.22405,
       21.342291
      ],
      [
       74.225535,
       21.342228
      ],
      [
       74.227051,
       21.342354
      ],
      [
       74.228185,
       21.342347
      ],
      [
       74.230382,
       21.342526
      ],
      [
       74.233511,
       21.342656
      ],
      [
       74.235533,
       21.342862
      ],
      [
       74.235605,
       21.348625
      ],
      [
       74.236134,
       21.350312
      ],
      [
       74.23657,
       21.351387
      ],
      [
       74.236594,
       21.35304
      ],
      [
       74.237577,
       21.353038
      ],
      [
       74.236877,
       21.353222
      ],
      [
       74.236956,
       21.353338
      ],
      [
       74.236964,
       21.353621
      ],
      [
       74.236846,
       21.353884
      ],
      [
       74.23686,
       21.354356
      ],
      [
       74.236596,
       21.354788
      ],
      [
       74.23622,
       21.354846
      ],
      [
       74.23613,
       21.355226
      ],
      [
       74.23619,
       21.355531
      ],
      [
       74.237025,
       21.355651
      ],
      [
       74.237174,
       21.360608
      ],
      [
       74.237079,
       21.3608
      ],
      [
       74.23712,
       21.363846
      ]
     ]
    ]
   }
  },
  {
   "type": "Feature",
   "id": "PRABHAG-18",
   "properties": {
    "prabhagId": "PRABHAG-18",
    "wardNumber": 18,
    "prabhagName": "Prabhag 18",
    "councillors": 2,
    "totalPopulation": 5365,
    "sc": 1361,
    "st": 193,
    "areaKm2": 0.553,
    "personsPerKm2": 9706,
    "sharpSourceCoverage": 0.649,
    "boundaryEvidence": "mixed",
    "sourceReference": "Nandurbar Municipal Council General Election 2025 FINAL MAP (wall copy, Nagar Parishad); DocScanner scan + wide board photograph",
    "digitisationMethod": "colour segmentation of printed boundary ink + cost-distance allocation from printed ward-number labels",
    "georeferencingMethod": "similarity fit: rotation from railway centreline vs OSM, scale from official 32.41 km2 council area, position from Nandurbar railway station",
    "resolutionQuality": "APPROXIMATE_DIGITISED_OFFICIAL_MAP_IMAGE",
    "requiresCitizenConfirmation": true,
    "isActive": false,
    "datasetVersion": "seewik-map-trace-v0.2"
   },
   "geometry": {
    "type": "Polygon",
    "coordinates": [
     [
      [
       74.241609,
       21.364815
      ],
      [
       74.240603,
       21.364888
      ],
      [
       74.240319,
       21.36466
      ],
      [
       74.240308,
       21.364306
      ],
      [
       74.240179,
       21.364191
      ],
      [
       74.239247,
       21.364192
      ],
      [
       74.238991,
       21.36408
      ],
      [
       74.237279,
       21.364126
      ],
      [
       74.237172,
       21.363916
      ],
      [
       74.237104,
       21.360799
      ],
      [
       74.237199,
       21.360608
      ],
      [
       74.23705,
       21.35565
      ],
      [
       74.236189,
       21.355508
      ],
      [
       74.236155,
       21.355225
      ],
      [
       74.236245,
       21.354845
      ],
      [
       74.236597,
       21.354812
      ],
      [
       74.236768,
       21.354642
      ],
      [
       74.236885,
       21.354355
      ],
      [
       74.236871,
       21.353883
      ],
      [
       74.236989,
       21.35362
      ],
      [
       74.236981,
       21.353337
      ],
      [
       74.236902,
       21.353221
      ],
      [
       74.237677,
       21.353012
      ],
      [
       74.238383,
       21.35304
      ],
      [
       74.239036,
       21.352952
      ],
      [
       74.239821,
       21.353097
      ],
      [
       74.240943,
       21.35354
      ],
      [
       74.240982,
       21.354011
      ],
      [
       74.240871,
       21.35451
      ],
      [
       74.24034,
       21.35528
      ],
      [
       74.24038,
       21.355775
      ],
      [
       74.241091,
       21.355946
      ],
      [
       74.241477,
       21.356219
      ],
      [
       74.242257,
       21.356198
      ],
      [
       74.241715,
       21.357441
      ],
      [
       74.241054,
       21.358096
      ],
      [
       74.240831,
       21.358197
      ],
      [
       74.241183,
       21.359038
      ],
      [
       74.241442,
       21.359267
      ],
      [
       74.24163,
       21.35964
      ],
      [
       74.241611,
       21.36068
      ],
      [
       74.241446,
       21.361063
      ],
      [
       74.241518,
       21.361793
      ],
      [
       74.241809,
       21.362258
      ],
      [
       74.241816,
       21.362494
      ],
      [
       74.241645,
       21.362664
      ],
      [
       74.241318,
       21.362696
      ],
      [
       74.241328,
       21.363003
      ],
      [
       74.241515,
       21.363376
      ],
      [
       74.241609,
       21.364815
      ]
     ]
    ]
   }
  },
  {
   "type": "Feature",
   "id": "PRABHAG-19",
   "properties": {
    "prabhagId": "PRABHAG-19",
    "wardNumber": 19,
    "prabhagName": "Prabhag 19",
    "councillors": 2,
    "totalPopulation": 5346,
    "sc": 334,
    "st": 580,
    "areaKm2": 0.139,
    "personsPerKm2": 38460,
    "sharpSourceCoverage": 1.0,
    "boundaryEvidence": "traced",
    "sourceReference": "Nandurbar Municipal Council General Election 2025 FINAL MAP (wall copy, Nagar Parishad); DocScanner scan + wide board photograph",
    "digitisationMethod": "colour segmentation of printed boundary ink + cost-distance allocation from printed ward-number labels",
    "georeferencingMethod": "similarity fit: rotation from railway centreline vs OSM, scale from official 32.41 km2 council area, position from Nandurbar railway station",
    "resolutionQuality": "APPROXIMATE_DIGITISED_OFFICIAL_MAP_IMAGE",
    "requiresCitizenConfirmation": true,
    "isActive": false,
    "datasetVersion": "seewik-map-trace-v0.2"
   },
   "geometry": {
    "type": "Polygon",
    "coordinates": [
     [
      [
       74.247431,
       21.364874
      ],
      [
       74.24706,
       21.365096
      ],
      [
       74.246727,
       21.364916
      ],
      [
       74.246376,
       21.364973
      ],
      [
       74.24488,
       21.364658
      ],
      [
       74.244678,
       21.364663
      ],
      [
       74.244308,
       21.364909
      ],
      [
       74.243527,
       21.36493
      ],
      [
       74.243068,
       21.364753
      ],
      [
       74.241633,
       21.36479
      ],
      [
       74.24154,
       21.363375
      ],
      [
       74.241353,
       21.363002
      ],
      [
       74.241344,
       21.362695
      ],
      [
       74.241646,
       21.362688
      ],
      [
       74.241841,
       21.362493
      ],
      [
       74.241834,
       21.362257
      ],
      [
       74.241677,
       21.362049
      ],
      [
       74.241799,
       21.361904
      ],
      [
       74.241973,
       21.361852
      ],
      [
       74.243562,
       21.361881
      ],
      [
       74.245128,
       21.362005
      ],
      [
       74.2451,
       21.362762
      ],
      [
       74.244904,
       21.362956
      ],
      [
       74.244604,
       21.363011
      ],
      [
       74.244438,
       21.36337
      ],
      [
       74.244954,
       21.363758
      ],
      [
       74.245066,
       21.364133
      ],
      [
       74.245766,
       21.363973
      ],
      [
       74.246413,
       21.363672
      ],
      [
       74.247167,
       21.363629
      ],
      [
       74.247262,
       21.364264
      ],
      [
       74.24745,
       21.364661
      ],
      [
       74.247431,
       21.364874
      ]
     ]
    ]
   }
  },
  {
   "type": "Feature",
   "id": "PRABHAG-20",
   "properties": {
    "prabhagId": "PRABHAG-20",
    "wardNumber": 20,
    "prabhagName": "Prabhag 20",
    "councillors": 3,
    "totalPopulation": 8394,
    "sc": 638,
    "st": 708,
    "areaKm2": 5.273,
    "personsPerKm2": 1592,
    "sharpSourceCoverage": 0.339,
    "boundaryEvidence": "mostly_inferred",
    "sourceReference": "Nandurbar Municipal Council General Election 2025 FINAL MAP (wall copy, Nagar Parishad); DocScanner scan + wide board photograph",
    "digitisationMethod": "colour segmentation of printed boundary ink + cost-distance allocation from printed ward-number labels",
    "georeferencingMethod": "similarity fit: rotation from railway centreline vs OSM, scale from official 32.41 km2 council area, position from Nandurbar railway station",
    "resolutionQuality": "APPROXIMATE_DIGITISED_OFFICIAL_MAP_IMAGE",
    "requiresCitizenConfirmation": true,
    "isActive": false,
    "datasetVersion": "seewik-map-trace-v0.2"
   },
   "geometry": {
    "type": "Polygon",
    "coordinates": [
     [
      [
       74.24165,
       21.362002
      ],
      [
       74.241516,
       21.361722
      ],
      [
       74.241471,
       21.361062
      ],
      [
       74.241636,
       21.36068
      ],
      [
       74.241655,
       21.35964
      ],
      [
       74.241468,
       21.359267
      ],
      [
       74.241209,
       21.359037
      ],
      [
       74.240856,
       21.358196
      ],
      [
       74.241055,
       21.35812
      ],
      [
       74.24174,
       21.35744
      ],
      [
       74.242091,
       21.356533
      ],
      [
       74.242307,
       21.356173
      ],
      [
       74.243034,
       21.35606
      ],
      [
       74.243137,
       21.356128
      ],
      [
       74.243438,
       21.356923
      ],
      [
       74.244243,
       21.356855
      ],
      [
       74.244937,
       21.356482
      ],
      [
       74.245773,
       21.355775
      ],
      [
       74.246034,
       21.355248
      ],
      [
       74.245967,
       21.354707
      ],
      [
       74.24657,
       21.354644
      ],
      [
       74.24781,
       21.3548
      ],
      [
       74.249043,
       21.354767
      ],
      [
       74.25105,
       21.354455
      ],
      [
       74.252324,
       21.353264
      ],
      [
       74.252997,
       21.35301
      ],
      [
       74.253386,
       21.352527
      ],
      [
       74.253569,
       21.351908
      ],
      [
       74.253861,
       21.351569
      ],
      [
       74.254356,
       21.351273
      ],
      [
       74.255228,
       21.350919
      ],
      [
       74.257003,
       21.350447
      ],
      [
       74.25755,
       21.35022
      ],
      [
       74.257623,
       21.350124
      ],
      [
       74.258251,
       21.35006
      ],
      [
       74.259667,
       21.350235
      ],
      [
       74.261223,
       21.350005
      ],
      [
       74.261394,
       21.349835
      ],
      [
       74.261544,
       21.349808
      ],
      [
       74.261566,
       21.349689
      ],
      [
       74.262526,
       21.348931
      ],
      [
       74.263504,
       21.348764
      ],
      [
       74.263414,
       21.348294
      ],
      [
       74.263209,
       21.348181
      ],
      [
       74.263123,
       21.347829
      ],
      [
       74.263337,
       21.347422
      ],
      [
       74.263765,
       21.347387
      ],
      [
       74.264074,
       21.347615
      ],
      [
       74.264777,
       21.347525
      ],
      [
       74.265017,
       21.347141
      ],
      [
       74.265293,
       21.347087
      ],
      [
       74.265665,
       21.346888
      ],
      [
       74.266291,
       21.346753
      ],
      [
       74.266363,
       21.346633
      ],
      [
       74.26635,
       21.346208
      ],
      [
       74.266423,
       21.346135
      ],
      [
       74.267202,
       21.346044
      ],
      [
       74.269801,
       21.346165
      ],
      [
       74.270232,
       21.346248
      ],
      [
       74.271417,
       21.346287
      ],
      [
       74.272936,
       21.346507
      ],
      [
       74.273192,
       21.346642
      ],
      [
       74.273758,
       21.347879
      ],
      [
       74.273844,
       21.348231
      ],
      [
       74.27462,
       21.349723
      ],
      [
       74.275271,
       21.351265
      ],
      [
       74.275507,
       21.35159
      ],
      [
       74.275539,
       21.351801
      ],
      [
       74.275669,
       21.35194
      ],
      [
       74.276025,
       21.352875
      ],
      [
       74.276261,
       21.3532
      ],
      [
       74.276375,
       21.353622
      ],
      [
       74.276584,
       21.3539
      ],
      [
       74.276671,
       21.354252
      ],
      [
       74.276774,
       21.354344
      ],
      [
       74.27702,
       21.354975
      ],
      [
       74.276949,
       21.355119
      ],
      [
       74.274136,
       21.355453
      ],
      [
       74.273894,
       21.35579
      ],
      [
       74.273922,
       21.355884
      ],
      [
       74.273565,
       21.356578
      ],
      [
       74.273551,
       21.356957
      ],
      [
       74.273893,
       21.35827
      ],
      [
       74.273847,
       21.358413
      ],
      [
       74.274217,
       21.359821
      ],
      [
       74.27417,
       21.359941
      ],
      [
       74.274591,
       21.361371
      ],
      [
       74.274579,
       21.36182
      ],
      [
       74.274728,
       21.362572
      ],
      [
       74.274,
       21.362685
      ],
      [
       74.272438,
       21.362679
      ],
      [
       74.270904,
       21.362791
      ],
      [
       74.264507,
       21.362888
      ],
      [
       74.262746,
       21.362982
      ],
      [
       74.26237,
       21.363063
      ],
      [
       74.262427,
       21.363274
      ],
      [
       74.262361,
       21.363606
      ],
      [
       74.262418,
       21.363817
      ],
      [
       74.262362,
       21.365331
      ],
      [
       74.26251,
       21.366059
      ],
      [
       74.262589,
       21.366175
      ],
      [
       74.264232,
       21.366345
      ],
      [
       74.264346,
       21.366791
      ],
      [
       74.264263,
       21.36736
      ],
      [
       74.264347,
       21.367641
      ],
      [
       74.264322,
       21.368492
      ],
      [
       74.264555,
       21.369549
      ],
      [
       74.262018,
       21.369805
      ],
      [
       74.261593,
       21.369934
      ],
      [
       74.261266,
       21.369943
      ],
      [
       74.261218,
       21.370015
      ],
      [
       74.259963,
       21.37019
      ],
      [
       74.259232,
       21.370185
      ],
      [
       74.258976,
       21.37005
      ],
      [
       74.258292,
       21.369927
      ],
      [
       74.258025,
       21.369414
      ],
      [
       74.257713,
       21.369092
      ],
      [
       74.25768,
       21.368833
      ],
      [
       74.257463,
       21.368342
      ],
      [
       74.257452,
       21.367964
      ],
      [
       74.257068,
       21.366935
      ],
      [
       74.25706,
       21.365825
      ],
      [
       74.256772,
       21.365455
      ],
      [
       74.256142,
       21.365448
      ],
      [
       74.255003,
       21.365289
      ],
      [
       74.254626,
       21.365322
      ],
      [
       74.254269,
       21.365166
      ],
      [
       74.25311,
       21.365173
      ],
      [
       74.25293,
       21.36506
      ],
      [
       74.252225,
       21.365078
      ],
      [
       74.251688,
       21.364809
      ],
      [
       74.251257,
       21.364726
      ],
      [
       74.251046,
       21.364401
      ],
      [
       74.250688,
       21.364221
      ],
      [
       74.250037,
       21.36353
      ],
      [
       74.249551,
       21.363282
      ],
      [
       74.249316,
       21.363029
      ],
      [
       74.249035,
       21.362894
      ],
      [
       74.24848,
       21.362885
      ],
      [
       74.247788,
       21.363329
      ],
      [
       74.247289,
       21.363484
      ],
      [
       74.247166,
       21.363605
      ],
      [
       74.246412,
       21.363649
      ],
      [
       74.245915,
       21.363898
      ],
      [
       74.245065,
       21.364109
      ],
      [
       74.244979,
       21.363757
      ],
      [
       74.244515,
       21.363415
      ],
      [
       74.244461,
       21.363298
      ],
      [
       74.244604,
       21.363035
      ],
      [
       74.244905,
       21.36298
      ],
      [
       74.245125,
       21.362761
      ],
      [
       74.245186,
       21.362263
      ],
      [
       74.245127,
       21.361982
      ],
      [
       74.242275,
       21.36182
      ],
      [
       74.241848,
       21.361855
      ],
      [
       74.24165,
       21.362002
      ]
     ]
    ]
   }
  }
 ]
}